{"type": "FeatureCollection", "features": [ {"type": "Feature", "properties": {"norad_id": 33867, "name": "IRIDIUM 33 DEB", "group": "iridium-33-debris", "lat": -62.82015402760351, "lon": 176.78946412679835, "alt_km": 375.49381430752965, "timestamp": "2025-12-13T13:34:35.425595+00:00", "meta": {"OBJECT_NAME": "IRIDIUM 33 DEB", "OBJECT_ID": "1997-051AL", "EPOCH": "2025-12-13T00:17:57.337152", "MEAN_MOTION": 15.68448649, "ECCENTRICITY": 0.00133514, "INCLINATION": 86.3647, "RA_OF_ASC_NODE": 349.9645, "ARG_OF_PERICENTER": 88.5689, "MEAN_ANOMALY": 271.711, "EPHEMERIS_TYPE": 0, "CLASSIFICATION_TYPE": "U", "NORAD_CAT_ID": 33867, "ELEMENT_SET_NO": 999, "REV_AT_EPOCH": 89515, "BSTAR": 0.0092270239, "MEAN_MOTION_DOT": 0.01147185, "MEAN_MOTION_DDOT": 0}, "tle": {"line1": "1 33867U 97051AL  25347.01246918  .01147185  00000+0  92270-2 0  9999", "line2": "2 33867  86.3647 349.9645 0013351  88.5689 271.7110 15.68448649895152"}}, "geometry": {"type": "Point", "coordinates": [176.78946412679835, -62.82015402760351]}}, {"type": "Feature", "properties": {"norad_id": 33870, "name": "IRIDIUM 33 DEB", "group": "iridium-33-debris", "lat": -57.06720862459405, "lon": 52.28940176500581, "alt_km": 755.6350195300811, "timestamp": "2025-12-13T13:34:35.425615+00:00", "meta": {"OBJECT_NAME": "IRIDIUM 33 DEB", "OBJECT_ID": "1997-051AP", "EPOCH": "2025-12-12T16:49:59.850624", "MEAN_MOTION": 14.45852384, "ECCENTRICITY": 0.00214473, "INCLINATION": 86.3746, "RA_OF_ASC_NODE": 58.2769, "ARG_OF_PERICENTER": 178.2616, "MEAN_ANOMALY": 308.486, "EPHEMERIS_TYPE": 0, "CLASSIFICATION_TYPE": "U", "NORAD_CAT_ID": 33870, "ELEMENT_SET_NO": 999, "REV_AT_EPOCH": 88136, "BSTAR": 0.0012339735, "MEAN_MOTION_DOT": 4.412e-05, "MEAN_MOTION_DDOT": 0}, "tle": {"line1": "1 33870U 97051AP  25346.70138716  .00004412  00000+0  12340-2 0  9998", "line2": "2 33870  86.3746  58.2769 0021447 178.2616 308.4860 14.45852384881362"}}, "geometry": {"type": "Point", "coordinates": [52.28940176500581, -57.06720862459405]}}, {"type": "Feature", "properties": {"norad_id": 33881, "name": "IRIDIUM 33 DEB", "group": "iridium-33-debris", "lat": -23.172670211984265, "lon": -72.06667115671546, "alt_km": 672.4160918538028, "timestamp": "2025-12-13T13:34:35.425626+00:00", "meta": {"OBJECT_NAME": "IRIDIUM 33 DEB", "OBJECT_ID": "1997-051BA", "EPOCH": "2025-12-12T20:44:34.160064", "MEAN_MOTION": 14.56580115, "ECCENTRICITY": 0.00614774, "INCLINATION": 86.386, "RA_OF_ASC_NODE": 106.688, "ARG_OF_PERICENTER": 174.2575, "MEAN_ANOMALY": 312.8923, "EPHEMERIS_TYPE": 0, "CLASSIFICATION_TYPE": "U", "NORAD_CAT_ID": 33881, "ELEMENT_SET_NO": 999, "REV_AT_EPOCH": 87502, "BSTAR": 0.0029090171, "MEAN_MOTION_DOT": 0.00013329, "MEAN_MOTION_DDOT": 0}, "tle": {"line1": "1 33881U 97051BA  25346.86428426  .00013329  00000+0  29090-2 0  9994", "line2": "2 33881  86.3860 106.6880 0061477 174.2575 312.8923 14.56580115875027"}}, "geometry": {"type": "Point", "coordinates": [-72.06667115671546, -23.172670211984265]}}, {"type": "Feature", "properties": {"norad_id": 33884, "name": "IRIDIUM 33 DEB", "group": "iridium-33-debris", "lat": -31.260372641481464, "lon": -168.34567963867923, "alt_km": 645.838076701677, "timestamp": "2025-12-13T13:34:35.425636+00:00", "meta": {"OBJECT_NAME": "IRIDIUM 33 DEB", "OBJECT_ID": "1997-051BD", "EPOCH": "2025-12-12T14:26:14.242272", "MEAN_MOTION": 14.77426992, "ECCENTRICITY": 0.00098121, "INCLINATION": 86.3703, "RA_OF_ASC_NODE": 9.8809, "ARG_OF_PERICENTER": 324.3008, "MEAN_ANOMALY": 162.3731, "EPHEMERIS_TYPE": 0, "CLASSIFICATION_TYPE": "U", "NORAD_CAT_ID": 33884, "ELEMENT_SET_NO": 999, "REV_AT_EPOCH": 88845, "BSTAR": 0.0019961519, "MEAN_MOTION_DOT": 0.00014256, "MEAN_MOTION_DDOT": 0}, "tle": {"line1": "1 33884U 97051BD  25346.60155373  .00014256  00000+0  19962-2 0  9994", "line2": "2 33884  86.3703   9.8809 0009812 324.3008 162.3731 14.77426992888456"}}, "geometry": {"type": "Point", "coordinates": [-168.34567963867923, -31.260372641481464]}}, {"type": "Feature", "properties": {"norad_id": 33886, "name": "IRIDIUM 33 DEB", "group": "iridium-33-debris", "lat": 14.133154383102568, "lon": 67.79383972459122, "alt_km": 778.8391363121718, "timestamp": "2025-12-13T13:34:35.425646+00:00", "meta": {"OBJECT_NAME": "IRIDIUM 33 DEB", "OBJECT_ID": "1997-051BF", "EPOCH": "2025-12-12T23:15:49.741344", "MEAN_MOTION": 14.36052453, "ECCENTRICITY": 0.00123207, "INCLINATION": 86.383, "RA_OF_ASC_NODE": 67.1322, "ARG_OF_PERICENTER": 241.1892, "MEAN_ANOMALY": 291.8704, "EPHEMERIS_TYPE": 0, "CLASSIFICATION_TYPE": "U", "NORAD_CAT_ID": 33886, "ELEMENT_SET_NO": 999, "REV_AT_EPOCH": 88055, "BSTAR": 0.00029940712, "MEAN_MOTION_DOT": 8.9e-06, "MEAN_MOTION_DDOT": 0}, "tle": {"line1": "1 33886U 97051BF  25346.96932571  .00000890  00000+0  29941-3 0  9996", "line2": "2 33886  86.3830  67.1322 0012320 241.1892 291.8704 14.36052453880554"}}, "geometry": {"type": "Point", "coordinates": [67.79383972459122, 14.133154383102568]}}, {"type": "Feature", "properties": {"norad_id": 33887, "name": "IRIDIUM 33 DEB", "group": "iridium-33-debris", "lat": -46.01136719429136, "lon": -0.8024947371658083, "alt_km": 774.5541622608735, "timestamp": "2025-12-13T13:34:35.425656+00:00", "meta": {"OBJECT_NAME": "IRIDIUM 33 DEB", "OBJECT_ID": "1997-051BG", "EPOCH": "2025-12-13T00:33:18.560736", "MEAN_MOTION": 14.37221293, "ECCENTRICITY": 0.00044619, "INCLINATION": 86.3045, "RA_OF_ASC_NODE": 3.2702, "ARG_OF_PERICENTER": 225.4093, "MEAN_ANOMALY": 163.0855, "EPHEMERIS_TYPE": 0, "CLASSIFICATION_TYPE": "U", "NORAD_CAT_ID": 33887, "ELEMENT_SET_NO": 999, "REV_AT_EPOCH": 88169, "BSTAR": 0.00021319946, "MEAN_MOTION_DOT": 6.54e-06, "MEAN_MOTION_DDOT": 0}, "tle": {"line1": "1 33887U 97051BG  25347.02313149  .00000654  00000+0  21320-3 0  9990", "line2": "2 33887  86.3045   3.2702 0004461 225.4093 163.0855 14.37221293881695"}}, "geometry": {"type": "Point", "coordinates": [-0.8024947371658083, -46.01136719429136]}}, {"type": "Feature", "properties": {"norad_id": 33953, "name": "IRIDIUM 33 DEB", "group": "iridium-33-debris", "lat": -43.34689302839362, "lon": -123.15761048391695, "alt_km": 722.1362393569225, "timestamp": "2025-12-13T13:34:35.425666+00:00", "meta": {"OBJECT_NAME": "IRIDIUM 33 DEB", "OBJECT_ID": "1997-051BN", "EPOCH": "2025-12-12T22:30:39.579840", "MEAN_MOTION": 14.5533028, "ECCENTRICITY": 0.00183814, "INCLINATION": 86.3844, "RA_OF_ASC_NODE": 53.6932, "ARG_OF_PERICENTER": 102.2717, "MEAN_ANOMALY": 74.2269, "EPHEMERIS_TYPE": 0, "CLASSIFICATION_TYPE": "U", "NORAD_CAT_ID": 33953, "ELEMENT_SET_NO": 999, "REV_AT_EPOCH": 88306, "BSTAR": 0.0017430129, "MEAN_MOTION_DOT": 7.597e-05, "MEAN_MOTION_DDOT": 0}, "tle": {"line1": "1 33953U 97051BN  25346.93795810  .00007597  00000+0  17430-2 0  9991", "line2": "2 33953  86.3844  53.6932 0018381 102.2717  74.2269 14.55330280883063"}}, "geometry": {"type": "Point", "coordinates": [-123.15761048391695, -43.34689302839362]}}, {"type": "Feature", "properties": {"norad_id": 33960, "name": "IRIDIUM 33 DEB", "group": "iridium-33-debris", "lat": 63.45774109815462, "lon": 101.58633617731962, "alt_km": 603.7876867980522, "timestamp": "2025-12-13T13:34:35.425676+00:00", "meta": {"OBJECT_NAME": "IRIDIUM 33 DEB", "OBJECT_ID": "1997-051BV", "EPOCH": "2025-12-12T21:09:23.730624", "MEAN_MOTION": 14.85208094, "ECCENTRICITY": 0.00074546, "INCLINATION": 86.2531, "RA_OF_ASC_NODE": 289.4477, "ARG_OF_PERICENTER": 62.3562, "MEAN_ANOMALY": 358.1237, "EPHEMERIS_TYPE": 0, "CLASSIFICATION_TYPE": "U", "NORAD_CAT_ID": 33960, "ELEMENT_SET_NO": 999, "REV_AT_EPOCH": 88869, "BSTAR": 0.0044724749, "MEAN_MOTION_DOT": 0.00038539, "MEAN_MOTION_DDOT": 0}, "tle": {"line1": "1 33960U 97051BV  25346.88152466  .00038539  00000+0  44725-2 0  9994", "line2": "2 33960  86.2531 289.4477 0007454  62.3562 358.1237 14.85208094888692"}}, "geometry": {"type": "Point", "coordinates": [101.58633617731962, 63.45774109815462]}}, {"type": "Feature", "properties": {"norad_id": 33966, "name": "IRIDIUM 33 DEB", "group": "iridium-33-debris", "lat": -27.81790704375456, "lon": 43.76518985700566, "alt_km": 737.2780614167505, "timestamp": "2025-12-13T13:34:35.425685+00:00", "meta": {"OBJECT_NAME": "IRIDIUM 33 DEB", "OBJECT_ID": "1997-051CB", "EPOCH": "2025-12-12T23:20:44.182176", "MEAN_MOTION": 14.49596242, "ECCENTRICITY": 0.0007444, "INCLINATION": 86.3924, "RA_OF_ASC_NODE": 45.9272, "ARG_OF_PERICENTER": 187.2818, "MEAN_ANOMALY": 292.5256, "EPHEMERIS_TYPE": 0, "CLASSIFICATION_TYPE": "U", "NORAD_CAT_ID": 33966, "ELEMENT_SET_NO": 999, "REV_AT_EPOCH": 88445, "BSTAR": 0.00084564855, "MEAN_MOTION_DOT": 3.266e-05, "MEAN_MOTION_DDOT": 0}, "tle": {"line1": "1 33966U 97051CB  25346.97273359  .00003266  00000+0  84565-3 0  9991", "line2": "2 33966  86.3924  45.9272 0007444 187.2818 292.5256 14.49596242884450"}}, "geometry": {"type": "Point", "coordinates": [43.76518985700566, -27.81790704375456]}}, {"type": "Feature", "properties": {"norad_id": 34071, "name": "IRIDIUM 33 DEB", "group": "iridium-33-debris", "lat": 37.90217963327785, "lon": 20.321133864460442, "alt_km": 721.9201376208357, "timestamp": "2025-12-13T13:34:35.425695+00:00", "meta": {"OBJECT_NAME": "IRIDIUM 33 DEB", "OBJECT_ID": "1997-051CE", "EPOCH": "2025-12-13T00:08:49.540416", "MEAN_MOTION": 14.49467237, "ECCENTRICITY": 0.00099317, "INCLINATION": 86.3461, "RA_OF_ASC_NODE": 17.7126, "ARG_OF_PERICENTER": 106.9407, "MEAN_ANOMALY": 253.2886, "EPHEMERIS_TYPE": 0, "CLASSIFICATION_TYPE": "U", "NORAD_CAT_ID": 34071, "ELEMENT_SET_NO": 999, "REV_AT_EPOCH": 88338, "BSTAR": 0.0009115766, "MEAN_MOTION_DOT": 3.511e-05, "MEAN_MOTION_DDOT": 0}, "tle": {"line1": "1 34071U 97051CE  25347.00612894  .00003511  00000+0  91158-3 0  9994", "line2": "2 34071  86.3461  17.7126 0009931 106.9407 253.2886 14.49467237883389"}}, "geometry": {"type": "Point", "coordinates": [20.321133864460442, 37.90217963327785]}}]}